STARLINK-4711           
1 53701U 22107B   24352.66176616  .00001746  00000+0  12774-3 0  9994
2 53701  53.2178  90.4918 0001419  94.6046 265.5108 15.08851182127375
STARLINK-4724           
1 53702U 22107C   24352.55462710  .00001085  00000+0  86237-4 0  9998
2 53702  53.2185  76.2869 0001580  92.1442 267.9732 15.08845030126815
STARLINK-4731           
1 53703U 22107D   24352.54403043 -.00002093  00000+0 -11340-3 0  9996
2 53703  53.2170  91.1816 0001331  88.4868 271.6277 15.08856738126602
STARLINK-4714           
1 53704U 22107E   24352.65817784  .00001960  00000+0  14115-3 0  9993
2 53704  53.2179  91.1713 0001234  90.7168 269.3966 15.08850181127201
STARLINK-4717           
1 53705U 22107F   24352.98568521  .00001584  00000+0  11761-3 0  9998
2 53705  53.2189  89.6670 0001749  93.4334 266.6858 15.08846151126664
STARLINK-4716           
1 53706U 22107G   24352.97094335  .00001373  00000+0  10431-3 0  9994
2 53706  53.2194  89.5732 0001523  91.9855 268.1311 15.08840974126668
STARLINK-4667           
1 53707U 22107H   24352.56568683  .00001134  00000+0  89347-4 0  9990
2 53707  53.2192  76.3508 0001467  88.2206 271.8955 15.08841474127569
STARLINK-4694           
1 53708U 22107J   24352.61718574  .00000561  00000+0  53311-4 0  9998
2 53708  53.2201  75.9700 0001645  86.4095 273.7086 15.08842374127571
STARLINK-4685           
1 53709U 22107K   24353.00172672  .00000678  00000+0  60681-4 0  9993
2 53709  53.2180  94.0719 0000902  97.9641 262.1454 15.08832060126604
STARLINK-4627           
1 53711U 22107M   24353.01277560  .00002485  00000+0  17417-3 0  9995
2 53711  53.2174  94.1312 0001736  90.2036 269.9155 15.08842134126606
STARLINK-4683           
1 53712U 22107N   24352.98697539  .00002381  00000+0  16757-3 0  9994
2 53712  53.2174  93.9893 0001179  92.3074 267.8053 15.08852248126605
STARLINK-4698           
1 53713U 22107P   24352.79532815  .00051109  00000+0  19244-2 0  9994
2 53713  53.2125  91.5000 0001745 203.8120 156.2799 15.26633446127062
STARLINK-4688           
1 53714U 22107Q   24353.25001157  .01060887  53380-3  25634-2 0  9994
2 53714  53.2098  61.0141 0001085  76.2374 126.5439 15.95894829127083
STARLINK-4686           
1 53715U 22107R   24353.00678730  .00000760  00000+0  65813-4 0  9990
2 53715  53.2190  99.0730 0001368  87.0281 273.0867 15.08837628126522
STARLINK-4699           
1 53716U 22107S   24353.00309307 -.00000487  00000+0 -12500-4 0  9995
2 53716  53.2174  99.0484 0001464  88.2987 271.8173 15.08861708126526
STARLINK-4695           
1 53718U 22107U   24352.72813387 -.00001618  00000+0 -83627-4 0  9998
2 53718  53.2177 100.8700 0001207  98.2701 261.8428 15.08831423126920
STARLINK-4644           
1 53719U 22107V   24352.66361488  .00000561  00000+0  53332-4 0  9996
2 53719  53.2169  70.5200 0001261  90.9979 269.1157 15.08849589127356
STARLINK-4642           
1 53720U 22107W   24353.01046592  .00002210  00000+0  15687-3 0  9997
2 53720  53.2187  99.0973 0001692  92.8336 267.2849 15.08846844126523
STARLINK-4707           
1 53721U 22107X   24353.01784608 -.00000004  00000+0  17791-4 0  9994
2 53721  53.2174  99.1423 0000501 109.7190 250.3856 15.08832041126520
STARLINK-4700           
1 53722U 22107Y   24353.02522658  .00002379  00000+0  16753-3 0  9993
2 53722  53.2186  99.1838 0001000  93.4985 266.6121 15.08830494126525
STARLINK-4705           
1 53723U 22107Z   24352.99943171 -.00000177  00000+0  69771-5 0  9991
2 53723  53.2183  99.0308 0001366  89.7517 270.3631 15.08831792126528
STARLINK-4663           
1 53724U 22107AA  24352.74921411  .00000063  00000+0  22077-4 0  9998
2 53724  53.2181 100.3073 0001665  87.2427 272.8755 15.08822047126940
STARLINK-4697           
1 53726U 22107AC  24352.69032594  .00001380  00000+0  10477-3 0  9992
2 53726  53.2182 100.6538 0001591  94.0011 266.1163 15.08844889126931
STARLINK-4701           
1 53727U 22107AD  24353.03258775 -.00000607  00000+0 -20060-4 0  9996
2 53727  53.2168  99.2335 0001159  94.2350 265.8775 15.08830374126526
STARLINK-4640           
1 53728U 22107AE  24352.69768801  .00001931  00000+0  13934-3 0  9994
2 53728  53.2174 100.7000 0001892  96.3630 263.7577 15.08852139127070
STARLINK-4651           
1 53729U 22107AF  24353.04363696 -.00000117  00000+0  10738-4 0  9994
2 53729  53.2161  99.3022 0001450  92.7782 267.3376 15.08830314126529
STARLINK-4641           
1 53730U 22107AG  24353.03626427  .00000910  00000+0  75304-4 0  9999
2 53730  53.2162  99.2557 0001804  93.4324 266.6874 15.08837744126526
STARLINK-4636           
1 53731U 22107AH  24352.58363400 -.00008948  00000+0 -54436-3 0  9991
2 53731  53.2145 101.4042 0001359  82.0627 278.0519 15.08869904126456
STARLINK-4661           
1 53732U 22107AJ  24353.04090382 -.00000459  00000+0 -10764-4 0  9996
2 53732  53.2174  99.2848 0001275  86.0036 274.1102 15.08842083126524
STARLINK-4574           
1 53733U 22107AK  24352.72348281  .00000819  00000+0  69532-4 0  9990
2 53733  53.2182 100.8543 0001363  98.1615 261.9531 15.08841510127109
STARLINK-4616           
1 53734U 22107AL  24353.03993440  .00002724  00000+0  18907-3 0  9995
2 53734  53.2153  99.2806 0001412  94.5126 265.6028 15.08858716126526
STARLINK-4618           
1 53735U 22107AM  24352.75195892  .00000663  00000+0  59763-4 0  9995
2 53735  53.2171 110.3110 0001608  89.3148 270.8028 15.08840985126979
STARLINK-4652           
1 53736U 22107AN  24352.71980343  .00000569  00000+0  53856-4 0  9997
2 53736  53.2178 100.8336 0001473  94.3359 265.7801 15.08842441127108
STARLINK-4646           
1 53737U 22107AP  24353.02060313  .00000582  00000+0  54646-4 0  9992
2 53737  53.2174 109.1434 0001239  91.6903 268.4231 15.08837684126380
STARLINK-4662           
1 53738U 22107AQ  24352.74826728  .00000539  00000+0  51935-4 0  9991
2 53738  53.2175 110.2871 0001579  95.9087 264.2085 15.08845661126977
STARLINK-4607           
1 53740U 22107AS  24352.75933182  .00004046  00000+0  27199-3 0  9999
2 53740  53.2176 110.3572 0001174  82.6474 277.4652 15.08860379127121
STARLINK-4614           
1 53741U 22107AT  24352.67149672 -.00000884  00000+0 -37446-4 0  9999
2 53741  53.2190  95.6334 0001368  52.4211 307.6905 15.08846201127325
STARLINK-4637           
1 53742U 22107AU  24353.02796873  .00001560  00000+0  11608-3 0  9992
2 53742  53.2180 109.1910 0001222  87.8847 272.2285 15.08845852126386
STARLINK-4645           
1 53743U 22107AV  24353.04271610 -.00001376  00000+0 -68404-4 0  9996
2 53743  53.2180 109.2837 0001286  92.9320 267.1819 15.08831324126384
STARLINK-4670           
1 53744U 22107AW  24352.73353592  .00000286  00000+0  36020-4 0  9998
2 53744  53.2169 110.2040 0001047 105.1701 254.9407 15.08844275127124
STARLINK-4656           
1 53745U 22107AX  24352.64895513  .00000209  00000+0  31241-4 0  9998
2 53745  53.2164 111.0911 0001366  80.1114 280.0032 15.08844229127101
STARLINK-4589           
1 53746U 22107AY  24352.57534861  .00000974  00000+0  79309-4 0  9993
2 53746  53.2170 111.3432 0001363  88.4200 271.6949 15.08837305127092
STARLINK-4669           
1 53748U 22107BA  24352.91667824  .00669847  00000+0  10085-1 0  9992
2 53748  53.2182 105.1248 0001260  62.4143 245.4312 15.51899855126422
STARLINK-4680           
1 53749U 22107BB  24352.57056676  .00089194  00000+0  21536-2 0  9997
2 53749  53.2177  88.9742 0001736 304.8707  55.2136 15.40459181126626
STARLINK-4612           
1 53750U 22107BC  24353.05377415 -.00001374  00000+0 -68301-4 0  9999
2 53750  53.2175 109.3528 0000923  91.4147 268.6951 15.08831643126389
STARLINK-4718           
1 53773U 22111A   24352.68021358  .00001011  00000+0  81589-4 0  9998
2 53773  53.2179 130.7441 0001335  91.6592 268.4553 15.08840013126369
STARLINK-4719           
1 53774U 22111B   24352.54404630  .00000639  00000+0  58230-4 0  9994
2 53774  53.2169 131.3155 0001269  93.8567 266.2570 15.08839656126209
STARLINK-4722           
1 53775U 22111C   24352.64068990  .00001218  00000+0  94602-4 0  9998
2 53775  53.2180 121.2333 0001200  82.7254 277.3875 15.08840566126207
STARLINK-4708           
1 53776U 22111D   24352.76812302  .00007263  00000+0  47376-3 0  9997
2 53776  53.2179 125.5926 0001076 166.4799 193.6222 15.08855287126433
STARLINK-4664           
1 53777U 22111E   24352.76579435  .00001788  00000+0  13038-3 0  9999
2 53777  53.2182 120.5895 0001064  95.7450 264.3664 15.08846129125411
STARLINK-4709           
1 53778U 22111F   24352.66040854  .00000979  00000+0  79609-4 0  9995
2 53778  53.2184 125.6369 0001261  86.0727 274.0409 15.08839504126140
STARLINK-4706           
1 53779U 22111G   24352.76211813  .00000873  00000+0  72936-4 0  9991
2 53779  53.2161 120.5693 0001458  96.0709 264.0449 15.08845544126222
STARLINK-4678           
1 53780U 22111H   24352.63699793  .00000796  00000+0  68083-4 0  9998
2 53780  53.2146 121.2095 0001598  88.1428 271.9747 15.08852468126205
STARLINK-4462           
1 53781U 22111J   24352.75106032 -.00000307  00000+0 -12060-5 0  9996
2 53781  53.2169 120.5031 0001350  94.0334 266.0813 15.08854103126220
STARLINK-4679           
1 53782U 22111K   24352.89090848  .00000153  00000+0  27670-4 0  9998
2 53782  53.2159 119.9512 0001237  92.3562 267.7572 15.08845998126248
STARLINK-4536           
1 53783U 22111L   24353.07491900 -.00001791  00000+0 -94510-4 0  9992
2 53783  53.2163 118.9705 0001562  83.0133 277.1037 15.08812722125462
STARLINK-4687           
1 53784U 22111M   24353.08594801  .00000993  00000+0  80494-4 0  9995
2 53784  53.2168 119.0344 0001129 104.1819 255.9299 15.08840345125460
STARLINK-4631           
1 53786U 22111P   24352.64986944  .00000516  00000+0  50493-4 0  9998
2 53786  53.2182 110.7230 0001437  88.0620 272.0536 15.08842171126354
STARLINK-4743           
1 53787U 22111Q   24353.06752662  .00001042  00000+0  83523-4 0  9999
2 53787  53.2175 118.9256 0001261  87.2236 272.8900 15.08839691125461
